NORAD_CAT_ID,OBJECT_NAME,OBJECT_TYPE,EPOCH,MEAN_MOTION,ECCENTRICITY,INCLINATION,RA_OF_ASC_NODE,ARG_OF_PERICENTER,MEAN_ANOMALY,BSTAR,MEAN_MOTION_DOT,MEAN_MOTION_DDOT,TLE_LINE0,TLE_LINE1,TLE_LINE2,SEMIMAJOR_AXIS,PERIOD,APOGEE,PERIGEE,DECAYED
50816.0,STARLINK-3342,PAYLOAD,2024-06-29 16:02:08,15.08825544,0.0001397,53.2155,63.5286,92.4705,267.6447,0.00012343,1.676e-05,0.0,0 STARLINK-3342,1 50816U 22001P   24181.66815159  .00001676  00000-0  12343-3 0  9998,2 50816  53.2155  63.5286 0001397  92.4705 267.6447 15.08825544138381,6917.925,95.438,540.756,538.823,0.0
50816.0,STARLINK-3342,PAYLOAD,2024-06-29 22:23:40,15.08829348,0.0001201,53.2153,62.3391,82.0984,278.0144,5.3292e-05,5.6e-06,0.0,0 STARLINK-3342,1 50816U 22001P   24181.93311236  .00000560  00000-0  53292-4 0  9995,2 50816  53.2153  62.3391 0001201  82.0984 278.0144 15.08829348137140,6917.913,95.438,540.609,538.947,0.0
50816.0,STARLINK-3342,PAYLOAD,2024-06-30 09:31:22,15.08837466,0.000122,53.2177,60.2599,82.4275,277.6856,0.00015612,2.197e-05,0.0,0 STARLINK-3342,1 50816U 22001P   24182.39679290  .00002197  00000-0  15612-3 0  9994,2 50816  53.2177  60.2599 0001220  82.4275 277.6856 15.08837466137214,6917.888,95.438,540.597,538.909,0.0
50816.0,STARLINK-3342,PAYLOAD,2024-06-30 20:39:04,15.08853122,0.0001245,53.2179,58.177,78.0803,282.0328,0.00046068,7.054e-05,0.0,0 STARLINK-3342,1 50816U 22001P   24182.86046660  .00007054  00000-0  46068-3 0  9991,2 50816  53.2179  58.1770 0001245  78.0803 282.0328 15.08853122138568,6917.84,95.437,540.567,538.844,0.0
50816.0,STARLINK-3342,PAYLOAD,2024-06-30 22:14:27,15.0885756,0.0001126,53.2181,57.879,81.1096,279.0024,0.00070208,0.00010909,0.0,0 STARLINK-3342,1 50816U 22001P   24182.92670623  .00010909  00000-0  70208-3 0  9996,2 50816  53.2181  57.8790 0001126  81.1096 279.0024 15.08857560137294,6917.827,95.436,540.471,538.913,0.0
50816.0,STARLINK-3342,PAYLOAD,2024-07-01 20:29:50,15.08856272,0.0001241,53.2154,53.7149,82.4583,277.655,0.00030856,4.628e-05,0.0,0 STARLINK-3342,1 50816U 22001P   24183.85406173  .00004628  00000-0  30856-3 0  9992,2 50816  53.2154  53.7149 0001241  82.4583 277.6550 15.08856272138715,6917.831,95.437,540.554,538.837,0.0
50816.0,STARLINK-3342,PAYLOAD,2024-07-01 22:05:13,15.08857527,0.0001534,53.2155,53.4155,89.2719,270.8448,0.00026507,3.935e-05,0.0,0 STARLINK-3342,1 50816U 22001P   24183.92030041  .00003935  00000-0  26507-3 0  9995,2 50816  53.2155  53.4155 0001534  89.2719 270.8448 15.08857527137445,6917.827,95.436,540.753,538.631,0.0
50816.0,STARLINK-3342,PAYLOAD,2024-07-02 01:16:00,15.08861451,0.0001084,53.2178,52.8243,86.402,273.7096,0.00044272,6.769e-05,0.0,0 STARLINK-3342,1 50816U 22001P   24184.05277929  .00006769  00000-0  44272-3 0  9995,2 50816  53.2178  52.8243 0001084  86.4020 273.7096 15.08861451137469,6917.815,95.436,540.43,538.93,0.0
50816.0,STARLINK-3342,PAYLOAD,2024-07-02 20:20:38,15.08841868,0.0001319,53.2178,49.2542,105.3659,254.7479,7.9779e-05,9.82e-06,0.0,0 STARLINK-3342,1 50816U 22001P   24184.84766276  .00000982  00000-0  79779-4 0  9992,2 50816  53.2178  49.2542 0001319 105.3659 254.7479 15.08841868138860,6917.875,95.437,540.652,538.827,0.0
50816.0,STARLINK-3342,PAYLOAD,2024-07-02 21:56:01,15.08846786,0.0001028,53.2168,48.9593,85.4387,274.6723,3.058e-05,1.99e-06,0.0,0 STARLINK-3342,1 50816U 22001P   24184.91390240  .00000199  00000-0  30580-4 0  9991,2 50816  53.2168  48.9593 0001028  85.4387 274.6723 15.08846786137590,6917.86,95.437,540.436,539.013,0.0
50816.0,STARLINK-3342,PAYLOAD,2024-07-03 21:46:48,15.08842616,0.0001288,53.2173,44.5021,106.0576,254.0558,9.6827e-05,1.254e-05,0.0,0 STARLINK-3342,1 50816U 22001P   24185.90750291  .00001254  00000-0  96827-4 0  9996,2 50816  53.2173  44.5021 0001288 106.0576 254.0558 15.08842616137745,6917.872,95.437,540.628,538.846,0.0
50816.0,STARLINK-3342,PAYLOAD,2024-07-04 07:19:07,15.08841896,0.0001244,53.2179,42.7184,102.9019,257.2112,0.00012921,1.769e-05,0.0,0 STARLINK-3342,1 50816U 22001P   24186.30494394  .00001769  00000-0  12921-3 0  9993,2 50816  53.2179  42.7184 0001244 102.9019 257.2112 15.08841896137807,6917.875,95.437,540.6,538.879,0.0
50816.0,STARLINK-3342,PAYLOAD,2024-07-04 20:02:12,15.08838691,0.0001305,53.2182,40.3395,108.6213,251.4921,8.1199e-05,1.005e-05,0.0,0 STARLINK-3342,1 50816U 22001P   24186.83486735  .00001005  00000-0  81199-4 0  9998,2 50816  53.2182  40.3395 0001305 108.6213 251.4921 15.08838691139160,6917.884,95.438,540.652,538.847,0.0
50816.0,STARLINK-3342,PAYLOAD,2024-07-04 21:37:35,15.08840715,0.0001198,53.2183,40.0416,100.4836,259.6291,0.00010699,1.415e-05,0.0,0 STARLINK-3342,1 50816U 22001P   24186.90110663  .00001415  00000-0  10699-3 0  9991,2 50816  53.2183  40.0416 0001198 100.4836 259.6291 15.08840715137891,6917.878,95.438,540.572,538.914,0.0
50816.0,STARLINK-3342,PAYLOAD,2024-07-05 07:09:54,15.08840783,0.0001285,53.2185,38.2554,94.9812,265.1327,8.5627e-05,1.075e-05,0.0,0 STARLINK-3342,1 50816U 22001P   24187.29854679  .00001075  00000-0  85627-4 0  9992,2 50816  53.2185  38.2554 0001285  94.9812 265.1327 15.08840783137957,6917.878,95.438,540.632,538.854,0.0
50816.0,STARLINK-3342,PAYLOAD,2024-07-05 21:28:22,15.08850689,0.0001089,53.2177,35.5811,100.0382,260.0733,0.00026639,3.956e-05,0.0,0 STARLINK-3342,1 50816U 22001P   24187.89470211  .00003956  00000-0  26639-3 0  9991,2 50816  53.2177  35.5811 0001089 100.0382 260.0733 15.08850689138049,6917.848,95.437,540.466,538.959,0.0
50816.0,STARLINK-3342,PAYLOAD,2024-07-05 23:03:45,15.08851789,0.0001282,53.217,35.2788,92.2391,267.8748,0.00029655,4.436e-05,0.0,0 STARLINK-3342,1 50816U 22001P   24187.96094168  .00004436  00000-0  29655-3 0  9997,2 50816  53.2170  35.2788 0001282  92.2391 267.8748 15.08851789139335,6917.844,95.437,540.596,538.822,0.0
50816.0,STARLINK-3342,PAYLOAD,2024-07-06 07:00:41,15.08834668,0.0001291,53.2178,33.7961,85.6492,274.4647,-4.3695e-05,-9.83e-06,0.0,0 STARLINK-3342,1 50816U 22001P   24188.29214897 -.00000983  00000-0 -43695-4 0  9993,2 50816  53.2178  33.7961 0001291  85.6492 274.4647 15.08834668139381,6917.897,95.438,540.655,538.869,0.0
50816.0,STARLINK-3342,PAYLOAD,2024-07-06 21:19:10,15.08829959,0.0001146,53.2167,31.1171,99.1763,260.9358,-8.2259e-05,-1.596e-05,0.0,0 STARLINK-3342,1 50816U 22001P   24188.88831435 -.00001596  00000-0 -82259-4 0  9991,2 50816  53.2167  31.1171 0001146  99.1763 260.9358 15.08829959138198,6917.911,95.438,540.569,538.983,0.0
50816.0,STARLINK-3342,PAYLOAD,2024-07-07 06:51:29,15.088348,0.0001216,53.2174,29.3327,98.3299,261.7831,7.1349e-05,8.48e-06,0.0,0 STARLINK-3342,1 50816U 22001P   24189.28575540  .00000848  00000-0  71349-4 0  9993,2 50816  53.2174  29.3327 0001216  98.3299 261.7831 15.08834800138254,6917.896,95.438,540.602,538.92,0.0
50816.0,STARLINK-3342,PAYLOAD,2024-07-07 19:34:34,15.08850493,0.0001085,53.2162,26.9545,88.548,271.5637,0.00052334,8.053e-05,0.0,0 STARLINK-3342,1 50816U 22001P   24189.81567235  .00008053  00000-0  52334-3 0  9992,2 50816  53.2162  26.9545 0001085  88.5480 271.5637 15.08850493139613,6917.848,95.437,540.464,538.963,0.0
50816.0,STARLINK-3342,PAYLOAD,2024-07-08 13:03:48,15.08847095,0.0001549,53.2169,23.6777,131.6313,228.4812,0.00020991,3.055e-05,0.0,0 STARLINK-3342,1 50816U 22001P   24190.54431011  .00003055  00000-0  20991-3 0  9997,2 50816  53.2169  23.6777 0001549 131.6313 228.4812 15.08847095139723,6917.859,95.437,540.795,538.652,0.0
50816.0,STARLINK-3342,PAYLOAD,2024-07-08 19:25:20,15.08856479,0.000134,53.2164,22.4936,99.4335,260.6809,0.00045337,6.938e-05,0.0,0 STARLINK-3342,1 50816U 22001P   24190.80926883  .00006938  00000-0  45337-3 0  9996,2 50816  53.2164  22.4936 0001340  99.4335 260.6809 15.08856479138488,6917.83,95.437,540.622,538.768,0.0
50816.0,STARLINK-3342,PAYLOAD,2024-07-09 12:54:35,15.08843988,0.000135,53.2183,19.2201,108.4665,251.6474,0.00024808,3.663e-05,0.0,0 STARLINK-3342,1 50816U 22001P   24191.53790906  .00003663  00000-0  24808-3 0  9994,2 50816  53.2183  19.2201 0001350 108.4665 251.6474 15.08843988139879,6917.868,95.437,540.667,538.799,0.0
50816.0,STARLINK-3342,PAYLOAD,2024-07-09 19:16:07,15.0884899,0.0001226,53.2172,18.0339,104.9272,255.1856,9.1211e-05,1.164e-05,0.0,0 STARLINK-3342,1 50816U 22001P   24191.80286651  .00001164  00000-0  91211-4 0  9998,2 50816  53.2172  18.0339 0001226 104.9272 255.1856 15.08848990138637,6917.853,95.437,540.566,538.87,0.0
50816.0,STARLINK-3342,PAYLOAD,2024-07-10 12:45:22,15.08837493,0.0001252,53.2172,14.7636,97.0713,263.0422,-3.6056e-06,-3.45e-06,0.0,0 STARLINK-3342,1 50816U 22001P   24192.53151161 -.00000345  00000-0 -36056-5 0  9995,2 50816  53.2172  14.7636 0001252  97.0713 263.0422 15.08837493140020,6917.888,95.438,540.619,538.887,0.0
50816.0,STARLINK-3342,PAYLOAD,2024-07-11 11:00:46,15.08842481,0.0001503,53.2176,10.6045,98.6196,261.4966,0.00014148,1.965e-05,0.0,0 STARLINK-3342,1 50816U 22001P   24193.45887031  .00001965  00000-0  14148-3 0  9992,2 50816  53.2176  10.6045 0001503  98.6196 261.4966 15.08842481138883,6917.873,95.437,540.778,538.698,0.0
50816.0,STARLINK-3342,PAYLOAD,2024-07-11 18:57:42,15.08840791,0.0001216,53.2177,9.1143,98.4172,261.6958,7.1416e-05,8.49e-06,0.0,0 STARLINK-3342,1 50816U 22001P   24193.79007135  .00000849  00000-0  71416-4 0  9990,2 50816  53.2177   9.1143 0001216  98.4172 261.6958 15.08840791140214,6917.878,95.438,540.584,538.902,0.0
50816.0,STARLINK-3342,PAYLOAD,2024-07-12 04:30:00,15.088422,9.53e-05,53.2168,7.3294,82.7015,277.4086,1.5772e-05,-3.7e-07,0.0,0 STARLINK-3342,1 50816U 22001P   24194.18751112 -.00000037  00000-0  15772-4 0  9998,2 50816  53.2168   7.3294 0000953  82.7015 277.4086 15.08842200138996,6917.874,95.437,540.398,539.079,0.0
50816.0,STARLINK-3342,PAYLOAD,2024-07-12 20:23:52,15.0884596,0.0001383,53.2188,4.3552,87.8059,272.3091,0.00020277,2.941e-05,0.0,0 STARLINK-3342,1 50816U 22001P   24194.84991238  .00002941  00000-0  20277-3 0  9996,2 50816  53.2188   4.3552 0001383  87.8059 272.3091 15.08845960140375,6917.862,95.437,540.684,538.77,0.0
